start=new Date('2023-02-18T00:00:00.000Z').valueOf();
sats=[{"MEAN_MOTION":"15.06376418","FILE":"3804075","CENTER_NAME":"EARTH","TIME_SYSTEM":"UTC","COUNTRY_CODE":"US","RCS_SIZE":"LARGE","ECCENTRICITY":"0.00011690","MEAN_MOTION_DDOT":"0.0000000000000","TLE_LINE2":"2 48393  53.0533 310.6896 0001169  92.0456 268.0667 15.06376418100348","DECAY_DATE":null,"GP_ID":"225835013","INCLINATION":"53.0533","OBJECT_ID":"2021-038AS","MEAN_MOTION_DOT":"-0.00003445","CLASSIFICATION_TYPE":"U","ARG_OF_PERICENTER":"92.0456","MEAN_ELEMENT_THEORY":"SGP4","SEMIMAJOR_AXIS":"6925.421","EPHEMERIS_TYPE":"0","OBJECT_NAME":"STARLINK-2602","NORAD_CAT_ID":"48393","BSTAR":"-0.00021263000000","RA_OF_ASC_NODE":"310.6896","PERIAPSIS":"546.476","APOAPSIS":"548.095","REF_FRAME":"TEME","REV_AT_EPOCH":"10034","TLE_LINE1":"1 48393U 21038AS  23048.87761930 -.00003445  00000-0 -21263-3 0  9994","SITE":"AFETR","MEAN_ANOMALY":"268.0667","PERIOD":"95.594","LAUNCH_DATE":"2021-05-04","ELEMENT_SET_NO":"999","OBJECT_TYPE":"PAYLOAD","EPOCH":"2023-02-17T21:03:46.307520"},{"NORAD_CAT_ID":"48394","EPHEMERIS_TYPE":"0","OBJECT_NAME":"STARLINK-2573","RA_OF_ASC_NODE":"310.7063","BSTAR":"-0.00003778100000","PERIAPSIS":"546.282","APOAPSIS":"548.248","TLE_LINE1":"1 48394U 21038AT  23048.87393223 -.00000844  00000-0 -37781-4 0  9994","SITE":"AFETR","REF_FRAME":"TEME","REV_AT_EPOCH":"10034","MEAN_ANOMALY":"289.0910","LAUNCH_DATE":"2021-05-04","PERIOD":"95.593","ELEMENT_SET_NO":"999","EPOCH":"2023-02-17T20:58:27.744672","OBJECT_TYPE":"PAYLOAD","FILE":"3804075","MEAN_MOTION":"15.06383225","CENTER_NAME":"EARTH","TIME_SYSTEM":"UTC","ECCENTRICITY":"0.00014190","MEAN_MOTION_DDOT":"0.0000000000000","TLE_LINE2":"2 48394  53.0530 310.7063 0001419  71.0232 289.0910 15.06383225100348","RCS_SIZE":"LARGE","COUNTRY_CODE":"US","GP_ID":"225834764","DECAY_DATE":null,"INCLINATION":"53.0530","OBJECT_ID":"2021-038AT","MEAN_MOTION_DOT":"-0.00000844","ARG_OF_PERICENTER":"71.0232","CLASSIFICATION_TYPE":"U","SEMIMAJOR_AXIS":"6925.400","MEAN_ELEMENT_THEORY":"SGP4"},{"MEAN_MOTION":"15.06409409","FILE":"3803221","TIME_SYSTEM":"UTC","CENTER_NAME":"EARTH","RCS_SIZE":"LARGE","COUNTRY_CODE":"US","TLE_LINE2":"2 48395  53.0540 314.7089 0001251 110.1406 249.9718 15.06409409 99592","MEAN_MOTION_DDOT":"0.0000000000000","ECCENTRICITY":"0.00012510","DECAY_DATE":null,"GP_ID":"225795954","OBJECT_ID":"2021-038AU","INCLINATION":"53.0540","MEAN_MOTION_DOT":"0.00043795","CLASSIFICATION_TYPE":"U","ARG_OF_PERICENTER":"110.1406","SEMIMAJOR_AXIS":"6925.320","MEAN_ELEMENT_THEORY":"SGP4","OBJECT_NAME":"STARLINK-2574","EPHEMERIS_TYPE":"0","NORAD_CAT_ID":"48395","BSTAR":"0.00294010000000","RA_OF_ASC_NODE":"314.7089","APOAPSIS":"548.051","PERIAPSIS":"546.318","REF_FRAME":"TEME","REV_AT_EPOCH":"9959","SITE":"AFETR","TLE_LINE1":"1 48395U 21038AU  23048.12206512  .00043795  00000-0  29401-2 0  9995","MEAN_ANOMALY":"249.9718","PERIOD":"95.592","LAUNCH_DATE":"2021-05-04","OBJECT_TYPE":"PAYLOAD","EPOCH":"2023-02-17T02:55:46.426368","ELEMENT_SET_NO":"999"},{"APOAPSIS":"548.197","PERIAPSIS":"546.321","RA_OF_ASC_NODE":"310.4360","BSTAR":"0.00004630300000","NORAD_CAT_ID":"48396","OBJECT_NAME":"STARLINK-2575","EPHEMERIS_TYPE":"0","OBJECT_TYPE":"PAYLOAD","EPOCH":"2023-02-17T22:28:41.789856","ELEMENT_SET_NO":"999","LAUNCH_DATE":"2021-05-04","PERIOD":"95.593","MEAN_ANOMALY":"284.6254","SITE":"AFETR","TLE_LINE1":"1 48396U 21038AV  23048.93659479  .00000408  00000-0  46303-4 0  9995","REV_AT_EPOCH":"10035","REF_FRAME":"TEME","DECAY_DATE":null,"GP_ID":"225835766","TLE_LINE2":"2 48396  53.0528 310.4360 0001354  75.4885 284.6254 15.06385158100354","ECCENTRICITY":"0.00013540","MEAN_MOTION_DDOT":"0.0000000000000","RCS_SIZE":"LARGE","COUNTRY_CODE":"US","TIME_SYSTEM":"UTC","CENTER_NAME":"EARTH","FILE":"3804075","MEAN_MOTION":"15.06385158","SEMIMAJOR_AXIS":"6925.394","MEAN_ELEMENT_THEORY":"SGP4","ARG_OF_PERICENTER":"75.4885","CLASSIFICATION_TYPE":"U","MEAN_MOTION_DOT":"0.00000408","OBJECT_ID":"2021-038AV","INCLINATION":"53.0528"},{"MEAN_ELEMENT_THEORY":"SGP4","SEMIMAJOR_AXIS":"6925.377","CLASSIFICATION_TYPE":"U","ARG_OF_PERICENTER":"73.3935","MEAN_MOTION_DOT":"-0.00001324","INCLINATION":"53.0533","OBJECT_ID":"2021-038AW","GP_ID":"225834514","DECAY_DATE":null,"RCS_SIZE":"LARGE","COUNTRY_CODE":"US","ECCENTRICITY":"0.00013560","MEAN_MOTION_DDOT":"0.0000000000000","TLE_LINE2":"2 48397  53.0533 310.7484 0001356  73.3935 286.7202 15.06390580100346","CENTER_NAME":"EARTH","TIME_SYSTEM":"UTC","MEAN_MOTION":"15.06390580","FILE":"3804075","ELEMENT_SET_NO":"999","EPOCH":"2023-02-17T20:47:50.057376","OBJECT_TYPE":"PAYLOAD","PERIOD":"95.593","LAUNCH_DATE":"2021-05-04","MEAN_ANOMALY":"286.7202","REF_FRAME":"TEME","REV_AT_EPOCH":"10034","TLE_LINE1":"1 48397U 21038AW  23048.86655159 -.00001324  00000-0 -70007-4 0  9997","SITE":"AFETR","PERIAPSIS":"546.303","APOAPSIS":"548.182","BSTAR":"-0.00007000700000","RA_OF_ASC_NODE":"310.7484","EPHEMERIS_TYPE":"0","OBJECT_NAME":"STARLINK-2590","NORAD_CAT_ID":"48397"},{"FILE":"3804075","MEAN_MOTION":"15.06386009","TIME_SYSTEM":"UTC","CENTER_NAME":"EARTH","TLE_LINE2":"2 48398  53.0529 310.7653 0001034  95.9751 264.1356 15.06386009100340","MEAN_MOTION_DDOT":"0.0000000000000","ECCENTRICITY":"0.00010340","COUNTRY_CODE":"US","RCS_SIZE":"LARGE","DECAY_DATE":null,"GP_ID":"225835264","INCLINATION":"53.0529","OBJECT_ID":"2021-038AX","MEAN_MOTION_DOT":"0.00015433","ARG_OF_PERICENTER":"95.9751","CLASSIFICATION_TYPE":"U","MEAN_ELEMENT_THEORY":"SGP4","SEMIMAJOR_AXIS":"6925.391","NORAD_CAT_ID":"48398","OBJECT_NAME":"STARLINK-2588","EPHEMERIS_TYPE":"0","RA_OF_ASC_NODE":"310.7653","BSTAR":"0.00105310000000","APOAPSIS":"547.973","PERIAPSIS":"546.540","SITE":"AFETR","TLE_LINE1":"1 48398U 21038AX  23048.86287602  .00015433  00000-0  10531-2 0  9990","REF_FRAME":"TEME","REV_AT_EPOCH":"10034","MEAN_ANOMALY":"264.1356","LAUNCH_DATE":"2021-05-04","PERIOD":"95.593","EPOCH":"2023-02-17T20:42:32.488128","OBJECT_TYPE":"PAYLOAD","ELEMENT_SET_NO":"999"},{"GP_ID":"225780504","DECAY_DATE":null,"RCS_SIZE":"LARGE","COUNTRY_CODE":"US","MEAN_MOTION_DDOT":"0.0000000000000","ECCENTRICITY":"0.00013120","TLE_LINE2":"2 48399  53.0543 312.5609 0001312  86.2136 273.9002 15.06468691100273","CENTER_NAME":"EARTH","TIME_SYSTEM":"UTC","MEAN_MOTION":"15.06468691","FILE":"3802730","SEMIMAJOR_AXIS":"6925.138","MEAN_ELEMENT_THEORY":"SGP4","CLASSIFICATION_TYPE":"U","ARG_OF_PERICENTER":"86.2136","MEAN_MOTION_DOT":"0.00032431","OBJECT_ID":"2021-038AY","INCLINATION":"53.0543","PERIAPSIS":"546.094","APOAPSIS":"547.912","BSTAR":"0.00218210000000","RA_OF_ASC_NODE":"312.5609","EPHEMERIS_TYPE":"0","OBJECT_NAME":"STARLINK-2587","NORAD_CAT_ID":"48399","ELEMENT_SET_NO":"999","EPOCH":"2023-02-17T11:03:56.078208","OBJECT_TYPE":"PAYLOAD","PERIOD":"95.588","LAUNCH_DATE":"2021-05-04","MEAN_ANOMALY":"273.9002","REF_FRAME":"TEME","REV_AT_EPOCH":"10027","TLE_LINE1":"1 48399U 21038AY  23048.46106572  .00032431  00000-0  21821-2 0  9994","SITE":"AFETR"},{"APOAPSIS":"548.098","PERIAPSIS":"546.435","NORAD_CAT_ID":"48400","OBJECT_NAME":"STARLINK-2576","EPHEMERIS_TYPE":"0","RA_OF_ASC_NODE":"312.5793","BSTAR":"0.00094739000000","LAUNCH_DATE":"2021-05-04","PERIOD":"95.593","EPOCH":"2023-02-17T10:58:40.852992","OBJECT_TYPE":"PAYLOAD","ELEMENT_SET_NO":"999","SITE":"AFETR","TLE_LINE1":"1 48400U 21038AZ  23048.45741728  .00013851  00000-0  94739-3 0  9998","REF_FRAME":"TEME","REV_AT_EPOCH":"9906","MEAN_ANOMALY":"274.5360","TLE_LINE2":"2 48400  53.0540 312.5793 0001201  85.5766 274.5360 15.06382735 99067","MEAN_MOTION_DDOT":"0.0000000000000","ECCENTRICITY":"0.00012010","COUNTRY_CODE":"US","RCS_SIZE":"LARGE","GP_ID":"225779253","DECAY_DATE":null,"FILE":"3802730","MEAN_MOTION":"15.06382735","TIME_SYSTEM":"UTC","CENTER_NAME":"EARTH","ARG_OF_PERICENTER":"85.5766","CLASSIFICATION_TYPE":"U","MEAN_ELEMENT_THEORY":"SGP4","SEMIMAJOR_AXIS":"6925.401","INCLINATION":"53.0540","OBJECT_ID":"2021-038AZ","MEAN_MOTION_DOT":"0.00013851"},{"INCLINATION":"53.0532","OBJECT_ID":"2021-038BA","MEAN_MOTION_DOT":"-0.00004443","ARG_OF_PERICENTER":"117.6085","CLASSIFICATION_TYPE":"U","MEAN_ELEMENT_THEORY":"SGP4","SEMIMAJOR_AXIS":"6925.421","FILE":"3804075","MEAN_MOTION":"15.06376476","TIME_SYSTEM":"UTC","CENTER_NAME":"EARTH","TLE_LINE2":"2 48401  53.0532 310.6433 0001386 117.6085 242.5045 15.06376476 99121","ECCENTRICITY":"0.00013860","MEAN_MOTION_DDOT":"0.0000000000000","RCS_SIZE":"LARGE","COUNTRY_CODE":"US","DECAY_DATE":null,"GP_ID":"225835014","SITE":"AFETR","TLE_LINE1":"1 48401U 21038BA  23048.89235964 -.00004443  00000-0 -27975-3 0  9994","REF_FRAME":"TEME","REV_AT_EPOCH":"9912","MEAN_ANOMALY":"242.5045","LAUNCH_DATE":"2021-05-04","PERIOD":"95.594","EPOCH":"2023-02-17T21:24:59.872896","OBJECT_TYPE":"PAYLOAD","ELEMENT_SET_NO":"999","NORAD_CAT_ID":"48401","OBJECT_NAME":"STARLINK-2571","EPHEMERIS_TYPE":"0","RA_OF_ASC_NODE":"310.6433","BSTAR":"-0.00027975000000","APOAPSIS":"548.246","PERIAPSIS":"546.326"},{"ELEMENT_SET_NO":"999","OBJECT_TYPE":"PAYLOAD","EPOCH":"2023-02-17T17:14:10.399488","PERIOD":"95.593","LAUNCH_DATE":"2021-05-04","MEAN_ANOMALY":"276.7372","REF_FRAME":"TEME","REV_AT_EPOCH":"9910","TLE_LINE1":"1 48402U 21038BB  23048.71817592 -.00000980  00000-0 -46901-4 0  9992","SITE":"AFETR","PERIAPSIS":"546.284","APOAPSIS":"548.249","BSTAR":"-0.00004690100000","RA_OF_ASC_NODE":"311.4069","EPHEMERIS_TYPE":"0","OBJECT_NAME":"STARLINK-2560","NORAD_CAT_ID":"48402","MEAN_ELEMENT_THEORY":"SGP4","SEMIMAJOR_AXIS":"6925.402","CLASSIFICATION_TYPE":"U","ARG_OF_PERICENTER":"83.3779","MEAN_MOTION_DOT":"-0.00000980","INCLINATION":"53.0523","OBJECT_ID":"2021-038BB","DECAY_DATE":null,"GP_ID":"225834765","COUNTRY_CODE":"US","RCS_SIZE":"LARGE","MEAN_MOTION_DDOT":"0.0000000000000","ECCENTRICITY":"0.00014190","TLE_LINE2":"2 48402  53.0523 311.4069 0001419  83.3779 276.7372 15.06382715 99105","CENTER_NAME":"EARTH","TIME_SYSTEM":"UTC","MEAN_MOTION":"15.06382715","FILE":"3804075"}];
